FENGYUN 1C DEB          
1 31848U 99025CJN 08109.54373312  .00000756  00000-0  16459-3 0   789
2 31848  96.7554  13.9768 0183682 288.5559  69.5706 14.50279549 48175
FENGYUN 1C DEB          
1 31850U 99025CJQ 08111.72151235  .00000533  00000-0  12811-3 0   605
2 31850  98.3235  79.3773 0384934 127.5591 236.1221 14.20412013 46494
FENGYUN 1C DEB          
1 31851U 99025CJR 08109.65325703  .00000654  00000-0  74980-3 0   135
2 31851  98.8205  59.1620 0245416  31.2195 340.0036 13.60736122 44261
FENGYUN 1C DEB          
1 31852U 99025CJS 08108.10027340  .00002048  00000-0  57325-3 0   482
2 31852  98.9240  65.0210 0668920 303.0490  48.2953 13.62534340 43826
FENGYUN 1C DEB          
1 31853U 99025CJT 08106.14704144  .00000899  00000-0  65128-3 0   223
2 31853  98.9594  88.6630 0064972 331.5019  28.2233 13.98095629 56291
FENGYUN 1C DEB          
1 31854U 99025CJU 08104.16724829  .00000251  00000-0  20722-3 0   689
2 31854  99.1651  96.0522 0082750 296.4644  62.7973 13.96790565 49834
FENGYUN 1C DEB          
1 31856U 99025CJW 08104.24364133  .00001604  00000-0  56190-3 0   375
2 31856  98.9866 114.8191 0104415  91.4311 273.4931 14.33516275 45982
FENGYUN 1C DEB          
1 31857U 99025CJX 08097.76879964  .00000527  00000-0  62578-3 0   423
2 31857  96.1942 283.6270 0350969 333.5619  24.8828 13.46571859 42688
FENGYUN 1C DEB          
1 31859U 99025CJZ 08112.42496624  .00009107  00000-0  18773-3 0   931
2 31859  99.0751 169.6298 0439156 351.2070   8.1636 14.82833957 46314
FENGYUN 1C DEB          
1 31860U 99025CKA 08106.72941414  .00006602  00000-0  66639-3 0   752
2 31860  98.1278  88.9398 0342076  31.7749 332.8695 14.56539762 52004
FENGYUN 1C DEB          
1 31861U 99025CKB 08108.99539082  .00001489  00000-0  20345-2 0   456
2 31861 102.2987 174.1696 0557217 223.2638 132.4031 13.10761775 48573
FENGYUN 1C DEB          
1 31877U 99025CKC 08109.88491538  .00000665  00000-0  12401-3 0   275
2 31877  99.0766 144.6042 0219127 348.9013  10.7170 14.54906381 45024
FENGYUN 1C DEB          
1 31878U 99025CKD 08111.92508250  .00000540  00000-0  14405-3 0   665
2 31878  99.4798 161.4023 0164621  38.4743 322.8011 14.45731831 44373
FENGYUN 1C DEB          
1 31879U 99025CKE 08110.93965900  .00000171  00000-0  63788-4 0   530
2 31879  99.7226 161.9909 0239858 148.4858 213.0934 14.31810402 44524
FENGYUN 1C DEB          
1 31880U 99025CKF 08102.27868761  .00000292  00000-0  29912-3 0   373
2 31880 100.0402 124.7294 0141494  51.9780 309.2066 13.81018132 41695
FENGYUN 1C DEB          
1 31881U 99025CKG 08111.98622749  .00001278  00000-0  40567-3 0   347
2 31881  99.0906 130.4049 0168328 101.3281 260.6659 14.34076652 45451
FENGYUN 1C DEB          
1 31883U 99025CKJ 08111.03196394  .00000098  00000-0  36662-4 0   786
2 31883  99.0947 139.9429 0172087  24.1047 336.8097 14.46470080 44359
FENGYUN 1C DEB          
1 31884U 99025CKK 08102.42308915 -.00162696  00000-0 -10851-1 0   632
2 31884  99.3079 168.4134 0280858   8.9765 352.2649 14.80494228 43972
FENGYUN 1C DEB          
1 31886U 99025CKM 08088.23014259  .00001014  00000-0  69932-3 0   170
2 31886  99.2636  87.0248 0077074  67.3182 294.1205 14.00197560 39888
FENGYUN 1C DEB          
1 31887U 99025CKN 08111.55574301  .00000743  00000-0  34801-3 0   447
2 31887  99.5681 145.8163 0056785  90.2434 270.4397 14.22772371 43980
FENGYUN 1C DEB          
1 31888U 99025CKP 08112.18390895  .00000690  00000-0  45456-3 0   610
2 31888  99.2979 117.5493 0031639 330.2938  29.6407 14.05173674 47529
FENGYUN 1C DEB          
1 31890U 99025CKR 08110.76990600  .00000042  00000-0  48946-4 0   614
2 31890  98.8700  96.2272 0074989   3.1285 357.0338 14.08121743 45682
FENGYUN 1C DEB          
1 31891U 99025CKS 08111.44464980  .00000152  00000-0  21325-3 0   565
2 31891  99.6223  97.9109 0234085  44.7580 317.2185 13.61485626 45952
FENGYUN 1C DEB          
1 31892U 99025CKT 08107.87304604  .00000177  00000-0  73152-4 0   219
2 31892  99.3168 130.9610 0242560 161.4376 199.6243 14.25077101 42882
FENGYUN 1C DEB          
1 31893U 99025CKU 08107.89325419  .00000129  00000-0  37224-4 0   171
2 31893  99.1040 141.1512 0210323   0.5475 359.5872 14.51061394 46133
FENGYUN 1C DEB          
1 31894U 99025CKV 08110.89656929  .00005493  00000-0  18639-3 0  1009
2 31894  98.8650 161.4735 0330316 301.4559  55.4748 14.92097007 45330
FENGYUN 1C DEB          
1 31895U 99025CKW 08108.11840975  .00000801  00000-0  93503-3 0   200
2 31895  99.1078  69.9283 0267026  27.3304 334.0428 13.57189588 43805
FENGYUN 1C DEB          
1 31898U 99025CKZ 08100.82548243  .00000395  00000-0  11899-3 0   516
2 31898  98.8374 104.8770 0235679 133.7128 228.3916 14.33427867 46426
FENGYUN 1C DEB          
1 31899U 99025CLA 08109.46662283  .00000985  00000-0  10284-2 0   428
2 31899 102.0910 214.7211 0257448 180.1341 179.9724 13.65310270 41160
FENGYUN 1C DEB          
1 31901U 99025CLC 08108.64019857  .00000092  00000-0  96370-4 0   571
2 31901  98.6066  69.1138 0135748   1.1693 358.9772 13.91861048 48753
FENGYUN 1C DEB          
1 31902U 99025CLD 08112.43386003  .00000110  00000-0  64728-4 0   511
2 31902  99.0028 112.5679 0193806   1.1523 359.0016 14.17523487 45651
FENGYUN 1C DEB          
1 31903U 99025CLE 08112.55428021  .00000203  00000-0  70116-4 0   692
2 31903  99.2858 146.2605 0177616   5.4702 354.8308 14.39375195 45792
FENGYUN 1C DEB          
1 31904U 99025CLF 08109.11678846  .00001455  00000-0  13724-2 0   525
2 31904  98.9549  74.1472 0211174 332.9384  25.7908 13.73376978 44043
FENGYUN 1C DEB          
1 31906U 99025CLH 08112.84396622  .00000075  00000-0  81492-4 0   818
2 31906  98.6512  79.8589 0061668 294.1379  65.3424 13.97545662 49296
FENGYUN 1C DEB          
1 31907U 99025CLJ 08108.47612016  .00011442  00000-0  43526-3 0   467
2 31907  99.6566 203.6253 0321248 335.5745  31.6440 14.90294020 46274
FENGYUN 1C DEB          
1 31910U 99025CLM 08106.63004812  .00000478  00000-0  14925-3 0   509
2 31910  97.7415  44.5062 0309264 121.3869 241.7922 14.20343019 44781
FENGYUN 1C DEB          
1 31912U 99025CLP 08111.95787731  .00000800  00000-0  96944-3 0   296
2 31912  98.8499  31.4585 0576705  66.1646 299.8621 13.14034340 42196
FENGYUN 1C DEB          
1 31913U 99025CLQ 08096.74135304  .00000661  00000-0  79185-3 0   270
2 31913  99.6021  78.3456 0277187  96.1838 271.2176 13.55372646 41526
FENGYUN 1C DEB          
1 31914U 99025CLR 08111.54909707  .00000009  00000-0  15171-4 0   220
2 31914  99.0530 140.2754 0201454 350.7938   8.9600 14.48656627 46237
FENGYUN 1C DEB          
1 31915U 99025CLS 08110.16724575  .00000200  00000-0  14665-3 0   540
2 31915  99.1239 105.2981 0117625  16.8802 343.6119 14.03828683 44397
FENGYUN 1C DEB          
1 31916U 99025CLT 08112.24368408  .00000510  00000-0  27297-3 0   719
2 31916  99.4265 127.5948 0194660 209.7966 149.1890 14.08573753 45114
FENGYUN 1C DEB          
1 31917U 99025CLU 08111.79255303  .00000232  00000-0  93568-4 0   635
2 31917  98.8424 108.8280 0225217 131.8302 230.2350 14.24282064 44929
FENGYUN 1C DEB          
1 31918U 99025CLV 08110.84447219  .00002839  00000-0  11969-2 0   739
2 31918  99.1854 125.9661 0076572  38.2491 322.1690 14.24950490 44508
FENGYUN 1C DEB          
1 31919U 99025CLW 08112.25217804  .00000164  00000-0  68999-4 0   514
2 31919  99.1566 135.3403 0119927  54.6988 306.5211 14.35530650 44917
FENGYUN 1C DEB          
1 31920U 99025CLX 08112.02695527  .00001069  00000-0  15878-3 0   683
2 31920  98.8474 137.6597 0246857 319.0593  39.1218 14.59105811 49188
FENGYUN 1C DEB          
1 31921U 99025CLY 08110.83994241  .00000229  00000-0  28893-3 0   729
2 31921  99.2883  83.6328 0222231  33.3629 328.1258 13.63760921 41579
FENGYUN 1C DEB          
1 31922U 99025CLZ 08111.85315321  .00000329  00000-0  35786-3 0   921
2 31922  98.8707  71.5949 0178493 352.0465   7.7856 13.72874010 43913
FENGYUN 1C DEB          
1 31923U 99025CMA 08110.31915923  .00000621  00000-0  81211-3 0   824
2 31923  98.4362  31.2711 0325424  22.7712 338.7437 13.44815070 43485
FENGYUN 1C DEB          
1 31924U 99025CMB 08111.76028699  .00000624  00000-0  77119-3 0  1118
2 31924  98.4323  35.8832 0306473   3.6982 356.6069 13.50172399 43046
FENGYUN 1C DEB          
1 31925U 99025CMC 08103.26165328  .00048902  00000-0  25272-2 0   567
2 31925  98.3839 117.0246 0301502   1.2419   5.0544 14.84522724 49203
FENGYUN 1C DEB          
1 31926U 99025CMD 08111.92615630  .00000463  00000-0  34145-3 0   948
2 31926  98.9550  94.8732 0065252 332.0280  27.7383 13.99526745 45156
FENGYUN 1C DEB          
1 31931U 99025CMG 08104.93342810  .00000343  00000-0  41575-3 0   407
2 31931  97.8232 354.8349 0443599  10.3132 350.6653 13.35866948 44302
FENGYUN 1C DEB          
1 31933U 99025CMJ 08107.86884282  .00002310  00000-0  71267-3 0   810
2 31933  99.1038 126.9277 0165919 112.6596 249.2314 14.34803440 43818
FENGYUN 1C DEB          
1 31934U 99025CMK 08110.24997022  .00000737  00000-0  28200-3 0   308
2 31934  99.0055 119.4675 0134409  11.9780 349.1873 14.29001241 44063
FENGYUN 1C DEB          
1 31935U 99025CML 08105.86792149  .00034135  00000-0  20463-1 0   630
2 31935  99.7376 132.8993 0078951  45.9703 315.2067 14.05246798 42351
FENGYUN 1C DEB          
1 31936U 99025CMM 08111.82560529  .00002397  00000-0  74996-3 0  1132
2 31936  98.9585 125.2225 0118104  49.5702 311.5739 14.37753023 44247
FENGYUN 1C DEB          
1 31937U 99025CMN 08101.33831160  .00000405  00000-0  95225-4 0   462
2 31937  99.3154 137.0078 0270204 131.5547 231.0028 14.40809207 42785
FENGYUN 1C DEB          
1 31938U 99025CMP 08107.88283456  .00000419  00000-0  63104-4 0   442
2 31938  98.9447 141.7569 0249986   6.3191 354.0923 14.62046393 44224
FENGYUN 1C DEB          
1 31941U 99025CMS 08097.34551221  .00007948  00000-0  26511-3 0   751
2 31941  99.0362 156.4910 0338885 339.0957  19.6579 14.90755701 43177
